GLOBALSTAR M084         
1 38040U 11080A   25326.29953297 -.00000083  00000+0  11359-3 0  9992
2 38040  52.0020 287.1233 0000800  41.6171 103.3672 12.62265532642637
GLOBALSTAR M080         
1 38041U 11080B   25326.26968719 -.00000087  00000+0  93976-4 0  9995
2 38041  52.0071 288.8607 0000595 105.6855  33.4113 12.62271266642755
GLOBALSTAR M082         
1 38042U 11080C   25326.21144760 -.00000070  00000+0  18838-3 0  9998
2 38042  52.0075 244.5167 0000711  89.0909  75.0833 12.62265136643453
GLOBALSTAR M092         
1 38043U 11080D   25326.33011042 -.00000104  00000+0 -16387-5 0  9996
2 38043  52.0107 334.5413 0000340  74.2048  28.8859 12.62267688641920
GLOBALSTAR M090         
1 38044U 11080E   25326.15514256 -.00000064  00000+0  22379-3 0  9992
2 38044  52.0122 238.5778 0000662  65.2536  81.9345 12.62264413643569
GLOBALSTAR M086         
1 38045U 11080F   25326.17985737 -.00000065  00000+0  21539-3 0  9999
2 38045  51.9893 238.7690 0000946 352.1550 155.7806 12.62279895643514
GLOBALSTAR M097         
1 39072U 13005A   25326.72950206 -.00000105  00000+0 -62308-5 0  9990
2 39072  52.0015 151.8114 0000839  92.9089 267.1874 12.62267597590831
GLOBALSTAR M093         
1 39073U 13005B   25326.78264359 -.00000109  00000+0 -26400-4 0  9990
2 39073  52.0076 144.9186 0000691 105.3826 254.7117 12.62270747590793
